ONEWEB-0209             
1 48215U 21031F   26018.59486456  .00000169  00000+0  42218-3 0  9996
2 48215  87.9022 319.5360 0001720  84.7159 275.4166 13.14503135228729
ONEWEB-0198             
1 48216U 21031G   26018.57914528  .00000066  00000+0  14324-3 0  9994
2 48216  87.9024 319.5364 0001428  90.1750 269.9543 13.14503391228832
ONEWEB-0189             
1 48217U 21031H   26018.36333818  .00000254  00000+0  64955-3 0  9993
2 48217  87.9027 319.5546 0001397  84.6176 275.5113 13.14503354228546
ONEWEB-0196             
1 48218U 21031J   26018.56947723  .00000019  00000+0  17793-4 0  9990
2 48218  87.9024 319.5260 0001632  83.1356 276.9959 13.14501640228575
ONEWEB-0183             
1 48219U 21031K   26018.54411055 -.00000132  00000+0 -39024-3 0  9991
2 48219  87.9018 319.5326 0001929  80.4296 279.7051 13.14503563228664
ONEWEB-0185             
1 48220U 21031L   26018.57027371  .00000008  00000+0 -14153-4 0  9998
2 48220  87.9028 319.5095 0001952  89.5430 270.5923 13.14501230228594
ONEWEB-0187             
1 48221U 21031M   26018.55032267 -.00000116  00000+0 -34775-3 0  9999
2 48221  87.9019 319.5505 0001711  87.0960 273.0365 13.14502831228603
ONEWEB-0192             
1 48222U 21031N   26018.52032702  .00000200  00000+0  50447-3 0  9997
2 48222  87.9019 319.5458 0001611  77.9763 282.1548 13.14503673228518
ONEWEB-0219             
1 48223U 21031P   26018.57583031  .00000173  00000+0  43106-3 0  9992
2 48223  87.9026 319.5156 0001765  86.7516 273.3815 13.14503883228721
ONEWEB-0202             
1 48224U 21031Q   26018.32843764 -.00000072  00000+0 -22868-3 0  9990
2 48224  87.9022 319.5750 0001043  89.9332 270.1918 13.14503798228676
ONEWEB-0204             
1 48225U 21031R   26018.59088639  .00000177  00000+0  44332-3 0  9996
2 48225  87.9028 319.5149 0002039  80.9764 279.1596 13.14501424228609
ONEWEB-0205             
1 48226U 21031S   26018.56631902 -.00000044  00000+0 -15366-3 0  9991
2 48226  87.9029 319.5124 0001785  84.7073 275.4260 13.14502664228611
ONEWEB-0206             
1 48227U 21031T   26018.53935340 -.00000065  00000+0 -20912-3 0  9998
2 48227  87.9041 319.5123 0001725  69.7888 290.3428 13.14502084228568
ONEWEB-0182             
1 48228U 21031U   26018.53459770  .00000023  00000+0  26458-4 0  9991
2 48228  87.9017 319.5342 0001952  79.1286 281.0064 13.14503536228773
ONEWEB-0186             
1 48229U 21031V   26018.39347102 -.00000156  00000+0 -45458-3 0  9990
2 48229  87.9033 319.5445 0001724  81.7552 278.3774 13.14502897228707
ONEWEB-0181             
1 48230U 21031W   26018.52350475  .00000196  00000+0  49426-3 0  9995
2 48230  87.9016 319.5676 0001599  82.8122 277.3190 13.14503498228575
