[{"OBJECT_NAME":"ONEWEB-0209","OBJECT_ID":"2021-031F","EPOCH":"2026-01-18T14:16:36.297984","MEAN_MOTION":13.14503135,"ECCENTRICITY":0.00017201,"INCLINATION":87.9022,"RA_OF_ASC_NODE":319.536,"ARG_OF_PERICENTER":84.7159,"MEAN_ANOMALY":275.4166,"EPHEMERIS_TYPE":0,"CLASSIFICATION_TYPE":"U","NORAD_CAT_ID":48215,"ELEMENT_SET_NO":999,"REV_AT_EPOCH":22872,"BSTAR":0.00042218263,"MEAN_MOTION_DOT":1.69e-6,"MEAN_MOTION_DDOT":0},{"OBJECT_NAME":"ONEWEB-0198","OBJECT_ID":"2021-031G","EPOCH":"2026-01-18T13:53:58.152192","MEAN_MOTION":13.14503391,"ECCENTRICITY":0.00014287,"INCLINATION":87.9024,"RA_OF_ASC_NODE":319.5364,"ARG_OF_PERICENTER":90.175,"MEAN_ANOMALY":269.9543,"EPHEMERIS_TYPE":0,"CLASSIFICATION_TYPE":"U","NORAD_CAT_ID":48216,"ELEMENT_SET_NO":999,"REV_AT_EPOCH":22883,"BSTAR":0.00014323811,"MEAN_MOTION_DOT":6.6e-7,"MEAN_MOTION_DDOT":0},{"OBJECT_NAME":"ONEWEB-0189","OBJECT_ID":"2021-031H","EPOCH":"2026-01-18T08:43:12.418752","MEAN_MOTION":13.14503354,"ECCENTRICITY":0.00013972,"INCLINATION":87.9027,"RA_OF_ASC_NODE":319.5546,"ARG_OF_PERICENTER":84.6176,"MEAN_ANOMALY":275.5113,"EPHEMERIS_TYPE":0,"CLASSIFICATION_TYPE":"U","NORAD_CAT_ID":48217,"ELEMENT_SET_NO":999,"REV_AT_EPOCH":22854,"BSTAR":0.00064954638,"MEAN_MOTION_DOT":2.54e-6,"MEAN_MOTION_DDOT":0},{"OBJECT_NAME":"ONEWEB-0196","OBJECT_ID":"2021-031J","EPOCH":"2026-01-18T13:40:02.832672","MEAN_MOTION":13.1450164,"ECCENTRICITY":0.00016328,"INCLINATION":87.9024,"RA_OF_ASC_NODE":319.526,"ARG_OF_PERICENTER":83.1356,"MEAN_ANOMALY":276.9959,"EPHEMERIS_TYPE":0,"CLASSIFICATION_TYPE":"U","NORAD_CAT_ID":48218,"ELEMENT_SET_NO":999,"REV_AT_EPOCH":22857,"BSTAR":1.7792521e-5,"MEAN_MOTION_DOT":1.9e-7,"MEAN_MOTION_DDOT":0},{"OBJECT_NAME":"ONEWEB-0183","OBJECT_ID":"2021-031K","EPOCH":"2026-01-18T13:03:31.151520","MEAN_MOTION":13.14503563,"ECCENTRICITY":0.00019298,"INCLINATION":87.9018,"RA_OF_ASC_NODE":319.5326,"ARG_OF_PERICENTER":80.4296,"MEAN_ANOMALY":279.7051,"EPHEMERIS_TYPE":0,"CLASSIFICATION_TYPE":"U","NORAD_CAT_ID":48219,"ELEMENT_SET_NO":999,"REV_AT_EPOCH":22866,"BSTAR":-0.00039023671,"MEAN_MOTION_DOT":-1.32e-6,"MEAN_MOTION_DDOT":0},{"OBJECT_NAME":"ONEWEB-0185","OBJECT_ID":"2021-031L","EPOCH":"2026-01-18T13:41:11.648544","MEAN_MOTION":13.1450123,"ECCENTRICITY":0.00019523,"INCLINATION":87.9028,"RA_OF_ASC_NODE":319.5095,"ARG_OF_PERICENTER":89.543,"MEAN_ANOMALY":270.5923,"EPHEMERIS_TYPE":0,"CLASSIFICATION_TYPE":"U","NORAD_CAT_ID":48220,"ELEMENT_SET_NO":999,"REV_AT_EPOCH":22859,"BSTAR":-1.4152964e-5,"MEAN_MOTION_DOT":8.0e-8,"MEAN_MOTION_DDOT":0},{"OBJECT_NAME":"ONEWEB-0187","OBJECT_ID":"2021-031M","EPOCH":"2026-01-18T13:12:27.878688","MEAN_MOTION":13.14502831,"ECCENTRICITY":0.00017111,"INCLINATION":87.9019,"RA_OF_ASC_NODE":319.5505,"ARG_OF_PERICENTER":87.096,"MEAN_ANOMALY":273.0365,"EPHEMERIS_TYPE":0,"CLASSIFICATION_TYPE":"U","NORAD_CAT_ID":48221,"ELEMENT_SET_NO":999,"REV_AT_EPOCH":22860,"BSTAR":-0.00034774767,"MEAN_MOTION_DOT":-1.16e-6,"MEAN_MOTION_DDOT":0},{"OBJECT_NAME":"ONEWEB-0192","OBJECT_ID":"2021-031N","EPOCH":"2026-01-18T12:29:16.254528","MEAN_MOTION":13.14503673,"ECCENTRICITY":0.00016112,"INCLINATION":87.9019,"RA_OF_ASC_NODE":319.5458,"ARG_OF_PERICENTER":77.9763,"MEAN_ANOMALY":282.1548,"EPHEMERIS_TYPE":0,"CLASSIFICATION_TYPE":"U","NORAD_CAT_ID":48222,"ELEMENT_SET_NO":999,"REV_AT_EPOCH":22851,"BSTAR":0.00050446875,"MEAN_MOTION_DOT":2.0e-6,"MEAN_MOTION_DDOT":0},{"OBJECT_NAME":"ONEWEB-0219","OBJECT_ID":"2021-031P","EPOCH":"2026-01-18T13:49:11.738784","MEAN_MOTION":13.14503883,"ECCENTRICITY":0.0001765,"INCLINATION":87.9026,"RA_OF_ASC_NODE":319.5156,"ARG_OF_PERICENTER":86.7516,"MEAN_ANOMALY":273.3815,"EPHEMERIS_TYPE":0,"CLASSIFICATION_TYPE":"U","NORAD_CAT_ID":48223,"ELEMENT_SET_NO":999,"REV_AT_EPOCH":22872,"BSTAR":0.00043106182,"MEAN_MOTION_DOT":1.73e-6,"MEAN_MOTION_DDOT":0},{"OBJECT_NAME":"ONEWEB-0202","OBJECT_ID":"2021-031Q","EPOCH":"2026-01-18T07:52:57.012096","MEAN_MOTION":13.14503798,"ECCENTRICITY":0.00010434,"INCLINATION":87.9022,"RA_OF_ASC_NODE":319.575,"ARG_OF_PERICENTER":89.9332,"MEAN_ANOMALY":270.1918,"EPHEMERIS_TYPE":0,"CLASSIFICATION_TYPE":"U","NORAD_CAT_ID":48224,"ELEMENT_SET_NO":999,"REV_AT_EPOCH":22867,"BSTAR":-0.00022867746,"MEAN_MOTION_DOT":-7.2e-7,"MEAN_MOTION_DDOT":0},{"OBJECT_NAME":"ONEWEB-0204","OBJECT_ID":"2021-031R","EPOCH":"2026-01-18T14:10:52.584096","MEAN_MOTION":13.14501424,"ECCENTRICITY":0.0002039,"INCLINATION":87.9028,"RA_OF_ASC_NODE":319.5149,"ARG_OF_PERICENTER":80.9764,"MEAN_ANOMALY":279.1596,"EPHEMERIS_TYPE":0,"CLASSIFICATION_TYPE":"U","NORAD_CAT_ID":48225,"ELEMENT_SET_NO":999,"REV_AT_EPOCH":22860,"BSTAR":0.00044332328,"MEAN_MOTION_DOT":1.77e-6,"MEAN_MOTION_DDOT":0},{"OBJECT_NAME":"ONEWEB-0205","OBJECT_ID":"2021-031S","EPOCH":"2026-01-18T13:35:29.963328","MEAN_MOTION":13.14502664,"ECCENTRICITY":0.00017858,"INCLINATION":87.9029,"RA_OF_ASC_NODE":319.5124,"ARG_OF_PERICENTER":84.7073,"MEAN_ANOMALY":275.426,"EPHEMERIS_TYPE":0,"CLASSIFICATION_TYPE":"U","NORAD_CAT_ID":48226,"ELEMENT_SET_NO":999,"REV_AT_EPOCH":22861,"BSTAR":-0.00015365979,"MEAN_MOTION_DOT":-4.4e-7,"MEAN_MOTION_DDOT":0},{"OBJECT_NAME":"ONEWEB-0206","OBJECT_ID":"2021-031T","EPOCH":"2026-01-18T12:56:40.133760","MEAN_MOTION":13.14502084,"ECCENTRICITY":0.00017258,"INCLINATION":87.9041,"RA_OF_ASC_NODE":319.5123,"ARG_OF_PERICENTER":69.7888,"MEAN_ANOMALY":290.3428,"EPHEMERIS_TYPE":0,"CLASSIFICATION_TYPE":"U","NORAD_CAT_ID":48227,"ELEMENT_SET_NO":999,"REV_AT_EPOCH":22856,"BSTAR":-0.00020912393,"MEAN_MOTION_DOT":-6.5e-7,"MEAN_MOTION_DDOT":0},{"OBJECT_NAME":"ONEWEB-0182","OBJECT_ID":"2021-031U","EPOCH":"2026-01-18T12:49:49.241280","MEAN_MOTION":13.14503536,"ECCENTRICITY":0.00019526,"INCLINATION":87.9017,"RA_OF_ASC_NODE":319.5342,"ARG_OF_PERICENTER":79.1286,"MEAN_ANOMALY":281.0064,"EPHEMERIS_TYPE":0,"CLASSIFICATION_TYPE":"U","NORAD_CAT_ID":48228,"ELEMENT_SET_NO":999,"REV_AT_EPOCH":22877,"BSTAR":2.6458353e-5,"MEAN_MOTION_DOT":2.3e-7,"MEAN_MOTION_DDOT":0},{"OBJECT_NAME":"ONEWEB-0186","OBJECT_ID":"2021-031V","EPOCH":"2026-01-18T09:26:35.896128","MEAN_MOTION":13.14502897,"ECCENTRICITY":0.00017247,"INCLINATION":87.9033,"RA_OF_ASC_NODE":319.5445,"ARG_OF_PERICENTER":81.7552,"MEAN_ANOMALY":278.3774,"EPHEMERIS_TYPE":0,"CLASSIFICATION_TYPE":"U","NORAD_CAT_ID":48229,"ELEMENT_SET_NO":999,"REV_AT_EPOCH":22870,"BSTAR":-0.00045457547,"MEAN_MOTION_DOT":-1.56e-6,"MEAN_MOTION_DDOT":0},{"OBJECT_NAME":"ONEWEB-0181","OBJECT_ID":"2021-031W","EPOCH":"2026-01-18T12:33:50.810400","MEAN_MOTION":13.14503498,"ECCENTRICITY":0.00015994,"INCLINATION":87.9016,"RA_OF_ASC_NODE":319.5676,"ARG_OF_PERICENTER":82.8122,"MEAN_ANOMALY":277.319,"EPHEMERIS_TYPE":0,"CLASSIFICATION_TYPE":"U","NORAD_CAT_ID":48230,"ELEMENT_SET_NO":999,"REV_AT_EPOCH":22857,"BSTAR":0.00049426051,"MEAN_MOTION_DOT":1.96e-6,"MEAN_MOTION_DDOT":0}]
